[{"OBJECT_NAME":"STARLINK-4398","OBJECT_ID":"2022-099B","EPOCH":"2026-03-09T20:40:09.712992","MEAN_MOTION":15.01260408,"ECCENTRICITY":0.00018332,"INCLINATION":97.602,"RA_OF_ASC_NODE":190.3842,"ARG_OF_PERICENTER":80.6969,"MEAN_ANOMALY":279.4462,"EPHEMERIS_TYPE":0,"CLASSIFICATION_TYPE":"U","NORAD_CAT_ID":53466,"ELEMENT_SET_NO":999,"REV_AT_EPOCH":19600,"BSTAR":2.7798956e-5,"MEAN_MOTION_DOT":2.99e-6,"MEAN_MOTION_DDOT":0},{"OBJECT_NAME":"CZ-2C DEB","OBJECT_ID":"2011-039F","EPOCH":"2026-03-09T17:45:14.166720","MEAN_MOTION":15.09482172,"ECCENTRICITY":0.00342492,"INCLINATION":97.9174,"RA_OF_ASC_NODE":359.6762,"ARG_OF_PERICENTER":347.2377,"MEAN_ANOMALY":72.5812,"EPHEMERIS_TYPE":0,"CLASSIFICATION_TYPE":"U","NORAD_CAT_ID":37770,"ELEMENT_SET_NO":999,"REV_AT_EPOCH":77853,"BSTAR":0.0024394871,"MEAN_MOTION_DOT":0.00039734,"MEAN_MOTION_DDOT":0}]
